{
  "norad_id": 62416,
  "name": "STARLINK-11446 [DTC]",
  "history": [
    {
      "epoch": "2026-03-28T21:07:28.434144Z",
      "apogee_km": 356.59606830352186,
      "perigee_km": 356.1175151746811,
      "latitude_deg": -1.5832127128318628e-05,
      "longitude_deg": -91.61568346145921,
      "height_km": 356.13939548853205,
      "semi_major_axis_km": 6734.493791739102,
      "eccentricity": 3.553e-05,
      "inclination_deg": 42.9975,
      "raan_deg": 51.5471,
      "arg_perigee_deg": 92.9014,
      "mean_anomaly_deg": 267.1894,
      "mean_motion_rev_day": 15.70888378
    },
    {
      "epoch": "2026-03-29T04:45:15.312096Z",
      "apogee_km": 357.17695446073867,
      "perigee_km": 354.8967631921396,
      "latitude_deg": -2.353496634553061e-06,
      "longitude_deg": 151.70766600152683,
      "height_km": 356.1764031559486,
      "semi_major_axis_km": 6734.173858826439,
      "eccentricity": 0.0001693,
      "inclination_deg": 42.999,
      "raan_deg": 49.6291,
      "arg_perigee_deg": 251.2159,
      "mean_anomaly_deg": 108.8525,
      "mean_motion_rev_day": 15.71000326
    },
    {
      "epoch": "2026-03-30T03:38:37.569408Z",
      "apogee_km": 357.0427584861418,
      "perigee_km": 355.66434296022,
      "latitude_deg": 1.317150830135177e-05,
      "longitude_deg": 161.67590532411296,
      "height_km": 356.737007287615,
      "semi_major_axis_km": 6734.490550723181,
      "eccentricity": 0.00010234,
      "inclination_deg": 42.9989,
      "raan_deg": 43.8801,
      "arg_perigee_deg": 207.3688,
      "mean_anomaly_deg": 152.7126,
      "mean_motion_rev_day": 15.70889512
    },
    {
      "epoch": "2026-03-31T07:06:42.776352Z",
      "apogee_km": 357.57891134772035,
      "perigee_km": 354.98467853953116,
      "latitude_deg": -1.5003796758945291e-05,
      "longitude_deg": 101.62710575717055,
      "height_km": 356.5126255806377,
      "semi_major_axis_km": 6734.4187949436255,
      "eccentricity": 0.00019261,
      "inclination_deg": 43.0002,
      "raan_deg": 36.9811,
      "arg_perigee_deg": 249.3183,
      "mean_anomaly_deg": 110.7478,
      "mean_motion_rev_day": 15.70914619
    },
    {
      "epoch": "2026-04-01T02:56:59.870688Z",
      "apogee_km": 357.2136920304147,
      "perigee_km": 355.55538344696106,
      "latitude_deg": 2.5843817770831337e-05,
      "longitude_deg": 158.2576029863487,
      "height_km": 356.18837693441424,
      "semi_major_axis_km": 6734.521537738688,
      "eccentricity": 0.00012312,
      "inclination_deg": 42.9998,
      "raan_deg": 31.9975,
      "arg_perigee_deg": 267.818,
      "mean_anomaly_deg": 92.2547,
      "mean_motion_rev_day": 15.7087867
    },
    {
      "epoch": "2026-04-02T20:09:04.756896Z",
      "apogee_km": 356.7783359295263,
      "perigee_km": 355.2079367817287,
      "latitude_deg": 3.872832297075231e-05,
      "longitude_deg": -111.80192042515922,
      "height_km": 355.96408711077083,
      "semi_major_axis_km": 6734.130136355628,
      "eccentricity": 0.0001166,
      "inclination_deg": 43.0002,
      "raan_deg": 21.6504,
      "arg_perigee_deg": 255.3368,
      "mean_anomaly_deg": 104.7371,
      "mean_motion_rev_day": 15.71015626
    },
    {
      "epoch": "2026-04-02T20:09:04.757760Z",
      "apogee_km": 356.77847061213015,
      "perigee_km": 355.20780209912573,
      "latitude_deg": 4.024913551809734e-05,
      "longitude_deg": -111.80192241331302,
      "height_km": 355.9641211991596,
      "semi_major_axis_km": 6734.130136355628,
      "eccentricity": 0.00011662,
      "inclination_deg": 43.0002,
      "raan_deg": 21.6504,
      "arg_perigee_deg": 255.3368,
      "mean_anomaly_deg": 104.7371,
      "mean_motion_rev_day": 15.71015626
    },
    {
      "epoch": "2026-04-03T03:46:51.695328Z",
      "apogee_km": 358.3215387092132,
      "perigee_km": 354.1658870589072,
      "latitude_deg": -2.9992343997718084e-05,
      "longitude_deg": 131.52388874234143,
      "height_km": 355.92374507344084,
      "semi_major_axis_km": 6734.38071288406,
      "eccentricity": 0.00030854,
      "inclination_deg": 43.002,
      "raan_deg": 19.7352,
      "arg_perigee_deg": 272.589,
      "mean_anomaly_deg": 87.4624,
      "mean_motion_rev_day": 15.70927944
    },
    {
      "epoch": "2026-04-04T19:27:26.289216Z",
      "apogee_km": 357.7215601754742,
      "perigee_km": 354.74496851863296,
      "latitude_deg": 2.8560060602845646e-05,
      "longitude_deg": -115.21493761584344,
      "height_km": 356.0641567092351,
      "semi_major_axis_km": 6734.370264347053,
      "eccentricity": 0.000221,
      "inclination_deg": 43.0004,
      "raan_deg": 9.7699,
      "arg_perigee_deg": 267.7746,
      "mean_anomaly_deg": 92.2869,
      "mean_motion_rev_day": 15.709316
    },
    {
      "epoch": "2026-04-05T10:43:04.592352Z",
      "apogee_km": 357.191420082243,
      "perigee_km": 355.81068458875325,
      "latitude_deg": 2.828306969733231e-05,
      "longitude_deg": 11.416532503925103,
      "height_km": 355.65633106353715,
      "semi_major_axis_km": 6734.638052335497,
      "eccentricity": 0.00010251,
      "inclination_deg": 43.0005,
      "raan_deg": 5.9377,
      "arg_perigee_deg": 333.2479,
      "mean_anomaly_deg": 26.8336,
      "mean_motion_rev_day": 15.70837904
    },
    {
      "epoch": "2026-04-06T01:58:39.497376Z",
      "apogee_km": 358.10551392258094,
      "perigee_km": 354.29064778597876,
      "latitude_deg": -1.140440122849728e-05,
      "longitude_deg": 138.0605579499231,
      "height_km": 356.1843605055251,
      "semi_major_axis_km": 6734.33508085428,
      "eccentricity": 0.00028324,
      "inclination_deg": 43.003,
      "raan_deg": 2.1039,
      "arg_perigee_deg": 263.6039,
      "mean_anomaly_deg": 96.4506,
      "mean_motion_rev_day": 15.70943911
    },
    {
      "epoch": "2026-04-07T14:36:05.364288Z",
      "apogee_km": 357.3949635433346,
      "perigee_km": 355.4726476525848,
      "latitude_deg": -1.1504310807745516e-05,
      "longitude_deg": -61.997313172319394,
      "height_km": 356.1643744559434,
      "semi_major_axis_km": 6734.570805597959,
      "eccentricity": 0.00014272,
      "inclination_deg": 42.9982,
      "raan_deg": 352.9079,
      "arg_perigee_deg": 272.4866,
      "mean_anomaly_deg": 87.5838,
      "mean_motion_rev_day": 15.70861432
    },
    {
      "epoch": "2026-04-07T17:39:12.824640Z",
      "apogee_km": 357.68554332796157,
      "perigee_km": 355.4226871132487,
      "latitude_deg": -2.0640112368929e-05,
      "longitude_deg": -108.6707522431628,
      "height_km": 356.2683134720249,
      "semi_major_axis_km": 6734.691115220605,
      "eccentricity": 0.000168,
      "inclination_deg": 42.9993,
      "raan_deg": 352.1409,
      "arg_perigee_deg": 272.9591,
      "mean_anomaly_deg": 87.1084,
      "mean_motion_rev_day": 15.70819339
    },
    {
      "epoch": "2026-04-08T01:17:00.430080Z",
      "apogee_km": 357.72961969505195,
      "perigee_km": 355.20064190289486,
      "latitude_deg": -7.889450853446245e-06,
      "longitude_deg": 134.6510559489436,
      "height_km": 356.3376655078026,
      "semi_major_axis_km": 6734.602130798973,
      "eccentricity": 0.00018776,
      "inclination_deg": 42.9993,
      "raan_deg": 350.2244,
      "arg_perigee_deg": 265.473,
      "mean_anomaly_deg": 94.5923,
      "mean_motion_rev_day": 15.70850472
    },
    {
      "epoch": "2026-04-09T09:19:45.889248Z",
      "apogee_km": 357.5773301945501,
      "perigee_km": 355.1565454090678,
      "latitude_deg": -2.6675024689879594e-05,
      "longitude_deg": 4.596737816470006,
      "height_km": 355.9823755725262,
      "semi_major_axis_km": 6734.503937801809,
      "eccentricity": 0.00017973,
      "inclination_deg": 43.0012,
      "raan_deg": 342.1756,
      "arg_perigee_deg": 277.4755,
      "mean_anomaly_deg": 82.5908,
      "mean_motion_rev_day": 15.70884828
    },
    {
      "epoch": "2026-04-09T23:03:47.957472Z",
      "apogee_km": 356.89584261953314,
      "perigee_km": 355.49914164586517,
      "latitude_deg": 4.021588474704654e-05,
      "longitude_deg": 154.57435832809938,
      "height_km": 356.2573626150514,
      "semi_major_axis_km": 6734.334492132699,
      "eccentricity": 0.0001037,
      "inclination_deg": 42.999,
      "raan_deg": 338.7258,
      "arg_perigee_deg": 245.6455,
      "mean_anomaly_deg": 114.4305,
      "mean_motion_rev_day": 15.70944117
    },
    {
      "epoch": "2026-04-11T16:15:54.512064Z",
      "apogee_km": 356.91552617536854,
      "perigee_km": 355.64406828405026,
      "latitude_deg": 1.0894109273564372e-05,
      "longitude_deg": -115.49148594433044,
      "height_km": 356.2968931486948,
      "semi_major_axis_km": 6734.416797229709,
      "eccentricity": 9.44e-05,
      "inclination_deg": 42.9977,
      "raan_deg": 328.3794,
      "arg_perigee_deg": 247.292,
      "mean_anomaly_deg": 112.7848,
      "mean_motion_rev_day": 15.70915318
    },
    {
      "epoch": "2026-04-13T00:18:39.958272Z",
      "apogee_km": 357.9918350978933,
      "perigee_km": 354.8785770584682,
      "latitude_deg": -3.087986089137258e-05,
      "longitude_deg": 114.45322860344659,
      "height_km": 356.7960298002621,
      "semi_major_axis_km": 6734.572206078181,
      "eccentricity": 0.00023114,
      "inclination_deg": 42.999,
      "raan_deg": 320.3296,
      "arg_perigee_deg": 247.8064,
      "mean_anomaly_deg": 112.2558,
      "mean_motion_rev_day": 15.70860942
    },
    {
      "epoch": "2026-04-14T20:33:53.987040Z",
      "apogee_km": 357.7958918026525,
      "perigee_km": 355.20332609367233,
      "latitude_deg": -7.487025242290721e-06,
      "longitude_deg": 157.71485925902522,
      "height_km": 356.30736305983476,
      "semi_major_axis_km": 6734.636608948163,
      "eccentricity": 0.00019248,
      "inclination_deg": 43.0,
      "raan_deg": 309.2171,
      "arg_perigee_deg": 268.4575,
      "mean_anomaly_deg": 91.6072,
      "mean_motion_rev_day": 15.70838409
    }
  ]
}